CCSDS_OMM_VERS = 2.0
CREATION_DATE  = 
ORIGINATOR     = 

OBJECT_NAME    = IDEFIX & ARIANE 42P R/B
OBJECT_ID      = 2002-021B
CENTER_NAME    = EARTH
REF_FRAME      = TEME
TIME_SYSTEM    = UTC
MEAN_ELEMENT_THEORY = SGP/SGP4

EPOCH          = 2026-02-24T10:05:55.492224
MEAN_MOTION    = 14.31015559
ECCENTRICITY   = .00108857
INCLINATION    = 98.5858
RA_OF_ASC_NODE = 354.1869
ARG_OF_PERICENTER = 223.1821
MEAN_ANOMALY   = 136.8509

EPHEMERIS_TYPE = 0
CLASSIFICATION_TYPE = U
NORAD_CAT_ID   = 27422
ELEMENT_SET_NO = 999
REV_AT_EPOCH   = 24212
BSTAR          = .12419474E-3
MEAN_MOTION_DOT = .283E-5
MEAN_MOTION_DDOT = 0

CCSDS_OMM_VERS = 2.0
CREATION_DATE  = 
ORIGINATOR     = 

OBJECT_NAME    = AQUA
OBJECT_ID      = 2002-022A
CENTER_NAME    = EARTH
REF_FRAME      = TEME
TIME_SYSTEM    = UTC
MEAN_ELEMENT_THEORY = SGP/SGP4

EPOCH          = 2026-02-24T22:47:43.760256
MEAN_MOTION    = 14.61940777
ECCENTRICITY   = .00009033
INCLINATION    = 98.4150
RA_OF_ASC_NODE = 23.0851
ARG_OF_PERICENTER = 48.8184
MEAN_ANOMALY   = 348.2672

EPHEMERIS_TYPE = 0
CLASSIFICATION_TYPE = U
NORAD_CAT_ID   = 27424
ELEMENT_SET_NO = 999
REV_AT_EPOCH   = 26687
BSTAR          = .20153052E-3
MEAN_MOTION_DOT = .96E-5
MEAN_MOTION_DDOT = 0

CCSDS_OMM_VERS = 2.0
CREATION_DATE  = 
ORIGINATOR     = 

OBJECT_NAME    = CZ-4B R/B
OBJECT_ID      = 2002-024C
CENTER_NAME    = EARTH
REF_FRAME      = TEME
TIME_SYSTEM    = UTC
MEAN_ELEMENT_THEORY = SGP/SGP4

EPOCH          = 2026-02-24T03:08:51.309888
MEAN_MOTION    = 14.14544903
ECCENTRICITY   = .00510289
INCLINATION    = 98.8872
RA_OF_ASC_NODE = 108.6042
ARG_OF_PERICENTER = 62.2489
MEAN_ANOMALY   = 323.2269

EPHEMERIS_TYPE = 0
CLASSIFICATION_TYPE = U
NORAD_CAT_ID   = 27432
ELEMENT_SET_NO = 999
REV_AT_EPOCH   = 22732
BSTAR          = .34465697E-4
MEAN_MOTION_DOT = .23E-6
MEAN_MOTION_DDOT = 0

CCSDS_OMM_VERS = 2.0
CREATION_DATE  = 
ORIGINATOR     = 

OBJECT_NAME    = MIDORI II (ADEOS-II)
OBJECT_ID      = 2002-056A
CENTER_NAME    = EARTH
REF_FRAME      = TEME
TIME_SYSTEM    = UTC
MEAN_ELEMENT_THEORY = SGP/SGP4

EPOCH          = 2026-02-24T18:47:11.391072
MEAN_MOTION    = 14.29273820
ECCENTRICITY   = .00019852
INCLINATION    = 98.7745
RA_OF_ASC_NODE = 14.1733
ARG_OF_PERICENTER = 60.8897
MEAN_ANOMALY   = 299.2483

EPHEMERIS_TYPE = 0
CLASSIFICATION_TYPE = U
NORAD_CAT_ID   = 27597
ELEMENT_SET_NO = 999
REV_AT_EPOCH   = 20845
BSTAR          = .11807478E-3
MEAN_MOTION_DOT = .255E-5
MEAN_MOTION_DDOT = 0

CCSDS_OMM_VERS = 2.0
CREATION_DATE  = 
ORIGINATOR     = 

OBJECT_NAME    = H-2A R/B
OBJECT_ID      = 2002-056E
CENTER_NAME    = EARTH
REF_FRAME      = TEME
TIME_SYSTEM    = UTC
MEAN_ELEMENT_THEORY = SGP/SGP4

EPOCH          = 2026-02-24T16:17:34.748160
MEAN_MOTION    = 14.33750803
ECCENTRICITY   = .00696868
INCLINATION    = 98.3177
RA_OF_ASC_NODE = 16.5418
ARG_OF_PERICENTER = 199.4833
MEAN_ANOMALY   = 333.8096

EPHEMERIS_TYPE = 0
CLASSIFICATION_TYPE = U
NORAD_CAT_ID   = 27601
ELEMENT_SET_NO = 999
REV_AT_EPOCH   = 21224
BSTAR          = .11138235E-3
MEAN_MOTION_DOT = .276E-5
MEAN_MOTION_DDOT = 0

CCSDS_OMM_VERS = 2.0
CREATION_DATE  = 
ORIGINATOR     = 

OBJECT_NAME    = CZ-4B R/B
OBJECT_ID      = 2003-049C
CENTER_NAME    = EARTH
REF_FRAME      = TEME
TIME_SYSTEM    = UTC
MEAN_ELEMENT_THEORY = SGP/SGP4

EPOCH          = 2026-02-24T22:28:33.176640
MEAN_MOTION    = 14.55005157
ECCENTRICITY   = .00469926
INCLINATION    = 98.6867
RA_OF_ASC_NODE = 50.3424
ARG_OF_PERICENTER = 270.7342
MEAN_ANOMALY   = 88.8470

EPHEMERIS_TYPE = 0
CLASSIFICATION_TYPE = U
NORAD_CAT_ID   = 28059
ELEMENT_SET_NO = 999
REV_AT_EPOCH   = 18474
BSTAR          = .96499067E-4
MEAN_MOTION_DOT = .369E-5
MEAN_MOTION_DDOT = 0

CCSDS_OMM_VERS = 2.0
CREATION_DATE  = 
ORIGINATOR     = 

OBJECT_NAME    = CZ-2C R/B
OBJECT_ID      = 2004-012C
CENTER_NAME    = EARTH
REF_FRAME      = TEME
TIME_SYSTEM    = UTC
MEAN_ELEMENT_THEORY = SGP/SGP4

EPOCH          = 2026-02-24T14:50:02.962176
MEAN_MOTION    = 15.62860890
ECCENTRICITY   = .00141014
INCLINATION    = 97.7261
RA_OF_ASC_NODE = 119.6877
ARG_OF_PERICENTER = 2.1916
MEAN_ANOMALY   = 357.9401

EPHEMERIS_TYPE = 0
CLASSIFICATION_TYPE = U
NORAD_CAT_ID   = 28222
ELEMENT_SET_NO = 999
REV_AT_EPOCH   = 20223
BSTAR          = .52733074E-3
MEAN_MOTION_DOT = .47851E-3
MEAN_MOTION_DDOT = 0

CCSDS_OMM_VERS = 2.0
CREATION_DATE  = 
ORIGINATOR     = 

OBJECT_NAME    = SL-16 R/B
OBJECT_ID      = 2004-021B
CENTER_NAME    = EARTH
REF_FRAME      = TEME
TIME_SYSTEM    = UTC
MEAN_ELEMENT_THEORY = SGP/SGP4

EPOCH          = 2026-02-24T14:05:46.524192
MEAN_MOTION    = 14.14599000
ECCENTRICITY   = .0003383
INCLINATION    = 70.9989
RA_OF_ASC_NODE = 259.9907
ARG_OF_PERICENTER = 39.4601
MEAN_ANOMALY   = 320.6767

EPHEMERIS_TYPE = 0
CLASSIFICATION_TYPE = U
NORAD_CAT_ID   = 28353
ELEMENT_SET_NO = 999
REV_AT_EPOCH   = 12098
BSTAR          = .82046E-4
MEAN_MOTION_DOT = .11E-5
MEAN_MOTION_DDOT = 0

CCSDS_OMM_VERS = 2.0
CREATION_DATE  = 
ORIGINATOR     = 

OBJECT_NAME    = CZ-4B R/B
OBJECT_ID      = 2004-035C
CENTER_NAME    = EARTH
REF_FRAME      = TEME
TIME_SYSTEM    = UTC
MEAN_ELEMENT_THEORY = SGP/SGP4

EPOCH          = 2026-02-24T08:40:44.158080
MEAN_MOTION    = 15.28792067
ECCENTRICITY   = .00326778
INCLINATION    = 97.3529
RA_OF_ASC_NODE = 89.7656
ARG_OF_PERICENTER = 19.2746
MEAN_ANOMALY   = 340.9722

EPHEMERIS_TYPE = 0
CLASSIFICATION_TYPE = U
NORAD_CAT_ID   = 28415
ELEMENT_SET_NO = 999
REV_AT_EPOCH   = 17787
BSTAR          = .30720243E-3
MEAN_MOTION_DOT = .8659E-4
MEAN_MOTION_DDOT = 0

CCSDS_OMM_VERS = 2.0
CREATION_DATE  = 
ORIGINATOR     = 

OBJECT_NAME    = CZ-2C R/B
OBJECT_ID      = 2004-046B
CENTER_NAME    = EARTH
REF_FRAME      = TEME
TIME_SYSTEM    = UTC
MEAN_ELEMENT_THEORY = SGP/SGP4

EPOCH          = 2026-02-24T12:19:30.186048
MEAN_MOTION    = 14.26987138
ECCENTRICITY   = .0139081
INCLINATION    = 98.1989
RA_OF_ASC_NODE = 331.3167
ARG_OF_PERICENTER = 193.3740
MEAN_ANOMALY   = 166.3741

EPHEMERIS_TYPE = 0
CLASSIFICATION_TYPE = U
NORAD_CAT_ID   = 28480
ELEMENT_SET_NO = 999
REV_AT_EPOCH   = 10662
BSTAR          = .56961E-4
MEAN_MOTION_DOT = .112E-5
MEAN_MOTION_DDOT = 0

CCSDS_OMM_VERS = 2.0
CREATION_DATE  = 
ORIGINATOR     = 

OBJECT_NAME    = ARIANE 5 R/B
OBJECT_ID      = 2004-049H
CENTER_NAME    = EARTH
REF_FRAME      = TEME
TIME_SYSTEM    = UTC
MEAN_ELEMENT_THEORY = SGP/SGP4

EPOCH          = 2026-02-24T16:44:54.201984
MEAN_MOTION    = 14.85237929
ECCENTRICITY   = .00848532
INCLINATION    = 98.2606
RA_OF_ASC_NODE = 223.6706
ARG_OF_PERICENTER = 33.9362
MEAN_ANOMALY   = 326.7240

EPHEMERIS_TYPE = 0
CLASSIFICATION_TYPE = U
NORAD_CAT_ID   = 28499
ELEMENT_SET_NO = 999
REV_AT_EPOCH   = 14386
BSTAR          = .95475659E-4
MEAN_MOTION_DOT = .809E-5
MEAN_MOTION_DDOT = 0

CCSDS_OMM_VERS = 2.0
CREATION_DATE  = 
ORIGINATOR     = 

OBJECT_NAME    = CZ-2D R/B
OBJECT_ID      = 2005-024B
CENTER_NAME    = EARTH
REF_FRAME      = TEME
TIME_SYSTEM    = UTC
MEAN_ELEMENT_THEORY = SGP/SGP4

EPOCH          = 2026-02-24T11:47:07.360224
MEAN_MOTION    = 15.58860801
ECCENTRICITY   = .0007462
INCLINATION    = 97.3617
RA_OF_ASC_NODE = 70.1667
ARG_OF_PERICENTER = 78.4118
MEAN_ANOMALY   = 281.7975

EPHEMERIS_TYPE = 0
CLASSIFICATION_TYPE = U
NORAD_CAT_ID   = 28738
ELEMENT_SET_NO = 999
REV_AT_EPOCH   = 13772
BSTAR          = .4883825E-3
MEAN_MOTION_DOT = .37837E-3
MEAN_MOTION_DDOT = 0

