IDEFIX & ARIANE 42P R/B 
1 27422U 02021B   26055.42078116  .00000283  00000+0  12419-3 0  9991
2 27422  98.5858 354.1869 0010885 223.1821 136.8509 14.31015559242126
AQUA                    
1 27424U 02022A   26055.94981204  .00000960  00000+0  20153-3 0  9998
2 27424  98.4150  23.0851 0000903  48.8184 348.2672 14.61940777266879
CZ-4B R/B               
1 27432U 02024C   26055.13114942  .00000023  00000+0  34466-4 0  9990
2 27432  98.8872 108.6042 0051028  62.2489 323.2269 14.14544903227328
MIDORI II (ADEOS-II)    
1 27597U 02056A   26055.78277073  .00000255  00000+0  11807-3 0  9993
2 27597  98.7745  14.1733 0001985  60.8897 299.2483 14.29273820208456
H-2A R/B                
1 27601U 02056E   26055.67887440  .00000276  00000+0  11138-3 0  9992
2 27601  98.3177  16.5418 0069686 199.4833 333.8096 14.33750803212247
CZ-4B R/B               
1 28059U 03049C   26055.93649510  .00000369  00000+0  96499-4 0  9993
2 28059  98.6867  50.3424 0046992 270.7342  88.8470 14.55005157184745
CZ-2C R/B               
1 28222U 04012C   26055.61808984  .00047851  00000+0  52733-3 0  9992
2 28222  97.7261 119.6877 0014101   2.1916 357.9401 15.62860890202238
SL-16 R/B               
1 28353U 04021B   26055.58734403  .00000110  00000+0  82046-4 0  9995
2 28353  70.9989 259.9907 0003383  39.4601 320.6767 14.14599000120980
CZ-4B R/B               
1 28415U 04035C   26055.36162220  .00008659  00000+0  30720-3 0  9994
2 28415  97.3529  89.7656 0032677  19.2746 340.9722 15.28792067177876
CZ-2C R/B               
1 28480U 04046B   26055.51354382  .00000112  00000+0  56961-4 0  9999
2 28480  98.1989 331.3167 0139081 193.3740 166.3741 14.26987138106623
ARIANE 5 R/B            
1 28499U 04049H   26055.69784956  .00000809  00000+0  95476-4 0  9992
2 28499  98.2606 223.6706 0084853  33.9362 326.7240 14.85237929143861
CZ-2D R/B               
1 28738U 05024B   26055.49105741  .00037837  00000+0  48838-3 0  9999
2 28738  97.3617  70.1667 0007462  78.4118 281.7975 15.58860801137729
